[
    {
        "Altitude(m)": 706993.1954373362,
        "Argument of Periapsis(deg)": 0.004556048474650827,
        "Eccentricity": 0.0,
        "Inclination(deg)": 45.0,
        "Latitude(deg)": 43.74451574293003,
        "Longitude(deg)": -137.46083691897456,
        "Mean Anomaly(deg)": 102.79508665899232,
        "RAAN(deg)": 214.99569922341672,
        "Satellite Name": "Constellation 1 952",
        "Satellite Number": 952,
        "Semi-Major Axis(m)": 7083131.272910544,
        "Time(s)": 76
    },
    {
        "Altitude(m)": 706990.2443961047,
        "Argument of Periapsis(deg)": 0.004615996480896233,
        "Eccentricity": 0.0,
        "Inclination(deg)": 45.0,
        "Latitude(deg)": 43.731313499271586,
        "Longitude(deg)": -137.38310183161255,
        "Mean Anomaly(deg)": 102.85578779924218,
        "RAAN(deg)": 214.99564263425117,
        "Satellite Name": "Constellation 1 952",
        "Satellite Number": 952,
        "Semi-Major Axis(m)": 7083131.272910544,
        "Time(s)": 77
    },
    {
        "Altitude(m)": 706987.2805971573,
        "Argument of Periapsis(deg)": 0.004675944487141638,
        "Eccentricity": 0.0,
        "Inclination(deg)": 45.0,
        "Latitude(deg)": 43.718052670856515,
        "Longitude(deg)": -137.30540274730268,
        "Mean Anomaly(deg)": 102.91648893949214,
        "RAAN(deg)": 214.9955860450856,
        "Satellite Name": "Constellation 1 952",
        "Satellite Number": 952,
        "Semi-Major Axis(m)": 7083131.272910544,
        "Time(s)": 78
    },
    {
        "Altitude(m)": 706984.304058,
        "Argument of Periapsis(deg)": 0.004735892493387044,
        "Eccentricity": 0.0,
        "Inclination(deg)": 45.0,
        "Latitude(deg)": 43.704733310119565,
        "Longitude(deg)": -137.22773979263795,
        "Mean Anomaly(deg)": 102.97719007974199,
        "RAAN(deg)": 214.99552945592004,
        "Satellite Name": "Constellation 1 952",
        "Satellite Number": 952,
        "Semi-Major Axis(m)": 7083131.272910544,
        "Time(s)": 79
    },
    {
        "Altitude(m)": 706981.3147962267,
        "Argument of Periapsis(deg)": 0.004795840499632449,
        "Eccentricity": 0.0,
        "Inclination(deg)": 45.0,
        "Latitude(deg)": 43.69135546966805,
        "Longitude(deg)": -137.15011309367205,
        "Mean Anomaly(deg)": 103.03789121999192,
        "RAAN(deg)": 214.99547286675443,
        "Satellite Name": "Constellation 1 952",
        "Satellite Number": 952,
        "Semi-Major Axis(m)": 7083131.272910544,
        "Time(s)": 80
    },
    {
        "Altitude(m)": 706978.3128295062,
        "Argument of Periapsis(deg)": 0.004855788505877855,
        "Eccentricity": 0.0,
        "Inclination(deg)": 45.0,
        "Latitude(deg)": 43.67791920228087,
        "Longitude(deg)": -137.07252277591894,
        "Mean Anomaly(deg)": 103.09859236024178,
        "RAAN(deg)": 214.99541627758887,
        "Satellite Name": "Constellation 1 952",
        "Satellite Number": 952,
        "Semi-Major Axis(m)": 7083131.272910544,
        "Time(s)": 81
    },
    {
        "Altitude(m)": 706975.2981755844,
        "Argument of Periapsis(deg)": 0.00491573651212326,
        "Eccentricity": 0.0,
        "Inclination(deg)": 45.0,
        "Latitude(deg)": 43.66442456090766,
        "Longitude(deg)": -136.9949691324477,
        "Mean Anomaly(deg)": 103.15929350049173,
        "RAAN(deg)": 214.9953596884233,
        "Satellite Name": "Constellation 1 952",
        "Satellite Number": 952,
        "Semi-Major Axis(m)": 7083131.272910544,
        "Time(s)": 82
    },
    {
        "Altitude(m)": 706972.2708522798,
        "Argument of Periapsis(deg)": 0.004975684518368666,
        "Eccentricity": 0.0,
        "Inclination(deg)": 45.0,
        "Latitude(deg)": 43.65087159866726,
        "Longitude(deg)": -136.91745195149537,
        "Mean Anomaly(deg)": 103.21999464074162,
        "RAAN(deg)": 214.99530309925774,
        "Satellite Name": "Constellation 1 952",
        "Satellite Number": 952,
        "Semi-Major Axis(m)": 7083131.272910544,
        "Time(s)": 83
    },
    {
        "Altitude(m)": 706969.2308774885,
        "Argument of Periapsis(deg)": 0.005035632524614072,
        "Eccentricity": 0.0,
        "Inclination(deg)": 45.0,
        "Latitude(deg)": 43.63726036884804,
        "Longitude(deg)": -136.8399715250465,
        "Mean Anomaly(deg)": 103.28069578099146,
        "RAAN(deg)": 214.99524651009213,
        "Satellite Name": "Constellation 1 952",
        "Satellite Number": 952,
        "Semi-Major Axis(m)": 7083131.272910544,
        "Time(s)": 84
    },
    {
        "Altitude(m)": 706966.1782691852,
        "Argument of Periapsis(deg)": 0.0050955805308594785,
        "Eccentricity": 0.0,
        "Inclination(deg)": 45.0,
        "Latitude(deg)": 43.623590924906054,
        "Longitude(deg)": -136.76252797644491,
        "Mean Anomaly(deg)": 103.34139692124147,
        "RAAN(deg)": 214.99518992092658,
        "Satellite Name": "Constellation 1 952",
        "Satellite Number": 952,
        "Semi-Major Axis(m)": 7083131.272910544,
        "Time(s)": 85
    },
    {
        "Altitude(m)": 706963.1130454198,
        "Argument of Periapsis(deg)": 0.005155528537104883,
        "Eccentricity": 0.0,
        "Inclination(deg)": 45.0,
        "Latitude(deg)": 43.60986332046441,
        "Longitude(deg)": -136.6851214284903,
        "Mean Anomaly(deg)": 103.4020980614913,
        "RAAN(deg)": 214.99513333176102,
        "Satellite Name": "Constellation 1 952",
        "Satellite Number": 952,
        "Semi-Major Axis(m)": 7083131.272910544,
        "Time(s)": 86
    },
    {
        "Altitude(m)": 706960.0352243156,
        "Argument of Periapsis(deg)": 0.0052154765433502885,
        "Eccentricity": 0.0,
        "Inclination(deg)": 45.0,
        "Latitude(deg)": 43.59607760931236,
        "Longitude(deg)": -136.60775200343642,
        "Mean Anomaly(deg)": 103.4627992017412,
        "RAAN(deg)": 214.99507674259544,
        "Satellite Name": "Constellation 1 952",
        "Satellite Number": 952,
        "Semi-Major Axis(m)": 7083131.272910544,
        "Time(s)": 87
    },
    {
        "Altitude(m)": 706956.9448240773,
        "Argument of Periapsis(deg)": 0.005275424549595694,
        "Eccentricity": 0.0,
        "Inclination(deg)": 45.0,
        "Latitude(deg)": 43.58223384540443,
        "Longitude(deg)": -136.53041982299123,
        "Mean Anomaly(deg)": 103.5235003419911,
        "RAAN(deg)": 214.9950201534299,
        "Satellite Name": "Constellation 1 952",
        "Satellite Number": 952,
        "Semi-Major Axis(m)": 7083131.272910544,
        "Time(s)": 88
    },
    {
        "Altitude(m)": 706953.8418629784,
        "Argument of Periapsis(deg)": 0.0053353725558411,
        "Eccentricity": 0.0,
        "Inclination(deg)": 45.0,
        "Latitude(deg)": 43.56833208285967,
        "Longitude(deg)": -136.45312517641253,
        "Mean Anomaly(deg)": 103.58420148224103,
        "RAAN(deg)": 214.99496356426434,
        "Satellite Name": "Constellation 1 952",
        "Satellite Number": 952,
        "Semi-Major Axis(m)": 7083131.272910544,
        "Time(s)": 89
    },
    {
        "Altitude(m)": 706950.7263593755,
        "Argument of Periapsis(deg)": 0.005395320562086505,
        "Eccentricity": 0.0,
        "Inclination(deg)": 45.0,
        "Latitude(deg)": 43.55437237595981,
        "Longitude(deg)": -136.3758678481195,
        "Mean Anomaly(deg)": 103.64490262249089,
        "RAAN(deg)": 214.99490697509873,
        "Satellite Name": "Constellation 1 952",
        "Satellite Number": 952,
        "Semi-Major Axis(m)": 7083131.272910544,
        "Time(s)": 90
    },
    {
        "Altitude(m)": 706947.5983316976,
        "Argument of Periapsis(deg)": 0.00545526856833191,
        "Eccentricity": 0.0,
        "Inclination(deg)": 45.0,
        "Latitude(deg)": 43.54035477914981,
        "Longitude(deg)": -136.29864812627355,
        "Mean Anomaly(deg)": 103.70560376274078,
        "RAAN(deg)": 214.99485038593318,
        "Satellite Name": "Constellation 1 952",
        "Satellite Number": 952,
        "Semi-Major Axis(m)": 7083131.272910544,
        "Time(s)": 91
    },
    {
        "Altitude(m)": 706944.4577984496,
        "Argument of Periapsis(deg)": 0.005515216574577317,
        "Eccentricity": 0.0,
        "Inclination(deg)": 45.0,
        "Latitude(deg)": 43.52627934703606,
        "Longitude(deg)": -136.22146613038987,
        "Mean Anomaly(deg)": 103.76630490299075,
        "RAAN(deg)": 214.9947937967676,
        "Satellite Name": "Constellation 1 952",
        "Satellite Number": 952,
        "Semi-Major Axis(m)": 7083131.272910544,
        "Time(s)": 92
    },
    {
        "Altitude(m)": 706941.3047782095,
        "Argument of Periapsis(deg)": 0.005575164580822722,
        "Eccentricity": 0.0,
        "Inclination(deg)": 45.0,
        "Latitude(deg)": 43.51214613438559,
        "Longitude(deg)": -136.14432197943412,
        "Mean Anomaly(deg)": 103.82700604324063,
        "RAAN(deg)": 214.99473720760204,
        "Satellite Name": "Constellation 1 952",
        "Satellite Number": 952,
        "Semi-Major Axis(m)": 7083131.272910544,
        "Time(s)": 93
    },
    {
        "Altitude(m)": 706938.1392896334,
        "Argument of Periapsis(deg)": 0.005635112587068129,
        "Eccentricity": 0.0,
        "Inclination(deg)": 45.0,
        "Latitude(deg)": 43.49795519612517,
        "Longitude(deg)": -136.06721579182056,
        "Mean Anomaly(deg)": 103.88770718349052,
        "RAAN(deg)": 214.9946806184365,
        "Satellite Name": "Constellation 1 952",
        "Satellite Number": 952,
        "Semi-Major Axis(m)": 7083131.272910544,
        "Time(s)": 94
    }
]